0 IRIDIUM 33 DEB
1 33869U 97051AN  13283.13894785  .00001907  00000-0  80299-3 0  3478
2 33869 086.3818 146.5094 0093073 073.1151 051.4296 14.22935631240924
0 IRIDIUM 33 DEB
1 33869U 97051AN  13286.09974277  .00002261  00000-0  95332-3 0  3491
2 33869 086.3822 145.2893 0093154 063.6620 098.3120 14.22945613241341
0 IRIDIUM 33 DEB
1 33869U 97051AN  13287.34424562  .00002407  00000-0  10153-2 0  3508
2 33869 086.3820 144.7766 0093320 059.8067 353.2871 14.22949540241528
0 IRIDIUM 33 DEB
1 33869U 97051AN  13288.39946891  .00003264  00000-0  13794-2 0  3515
2 33869 086.3817 144.3418 0093412 056.5305 358.7040 14.22958270241679
0 IRIDIUM 33 DEB
1 33869U 97051AN  13289.81880278  .00003228  00000-0  13639-2 0  3528
2 33869 086.3813 143.7572 0093506 052.1099 069.3482 14.22967246241875
0 IRIDIUM 33 DEB
1 33869U 97051AN  13291.09343730  .00002904  00000-0  12259-2 0  3536
2 33869 086.3811 143.2320 0093574 048.1418 118.7927 14.22974270242053
0 IRIDIUM 33 DEB
1 33869U 97051AN  13292.33796427  .00002977  00000-0  12565-2 0  3540
2 33869 086.3811 142.7194 0093696 044.2576 014.0546 14.22980968242239
0 IRIDIUM 33 DEB
1 33869U 97051AN  13293.82814372  .00003651  00000-0  15425-2 0  3554
2 33869 086.3811 142.1054 0093770 039.6061 087.7506 14.22989904242443
0 IRIDIUM 33 DEB
1 33869U 97051AN  13295.03038634  .00004342  00000-0  18357-2 0  3564
2 33869 086.3810 141.6100 0093822 035.7751 126.5596 14.22997881242612
0 IRIDIUM 33 DEB
1 33869U 97051AN  13296.07820764  .00004821  00000-0  20385-2 0  3579
2 33869 086.3811 141.1782 0093847 032.5194 094.2489 14.23007001242762
